ONEWEB-0326             
1 49195U 21083K   23164.09722112  .00000056  00000+0  10831-3 0  9998
2 49195  87.9254 194.1386 0002450 107.3490 252.7910 13.18688183 86290
ONEWEB-0327             
1 49196U 21083L   23163.84538511  .00000033  00000+0  51215-4 0  9996
2 49196  87.9253 194.1620 0002415 106.3490 253.7908 13.18682126 85008
ONEWEB-0328             
1 49197U 21083M   23163.76043654 -.00000349  00000+0 -99099-3 0  9990
2 49197  87.9049 179.0494 0001932  95.9319 264.2030 13.13468851 86443
ONEWEB-0331             
1 49198U 21083N   23163.78740228 -.00000006  00000+0 -47226-4 0  9990
2 49198  87.9252 194.2178 0002218 100.4752 259.6630 13.18687424 84984
ONEWEB-0333             
1 49199U 21083P   23163.75514887 -.00000202  00000+0 -58869-3 0  9990
2 49199  87.9051 179.0520 0002151  84.5846 275.5528 13.13472324 86459
ONEWEB-0334             
1 49200U 21083Q   23163.89469158 -.00000001  00000+0 -34696-4 0  9998
2 49200  87.9233 133.5368 0002673  66.8995 293.2420 13.20773511 91551
ONEWEB-0335             
1 49201U 21083R   23163.97943029 -.00000104  00000+0 -32075-3 0  9994
2 49201  87.9048 178.9980 0001894  93.5250 266.6096 13.13465976 87782
ONEWEB-0336             
1 49202U 21083S   23164.48096157  .00000230  00000+0  59537-3 0  9993
2 49202  87.9047 178.8973 0002116  85.6230 274.5141 13.13472304 87851
ONEWEB-0337             
1 49203U 21083T   23163.74244203  .00000074  00000+0  16763-3 0  9999
2 49203  87.9049 179.0483 0001949  92.0772 268.0581 13.13466717 86451
ONEWEB-0338             
1 49204U 21083U   23163.90226212  .00000043  00000+0  73626-4 0  9996
2 49204  87.9239 133.4982 0002017  65.1867 294.9476 13.20773730 91578
ONEWEB-0339             
1 49205U 21083V   23163.74139402  .00000048  00000+0  96118-4 0  9999
2 49205  87.9047 179.0457 0001720  83.2100 276.9225 13.13469396 86433
ONEWEB-0340             
1 49206U 21083W   23163.84851253 -.00000011  00000+0 -61752-4 0  9994
2 49206  87.9254 194.1984 0002125  97.4903 262.6470 13.18688258 84959
ONEWEB-0341             
1 49207U 21083X   23163.78108081 -.00000027  00000+0 -10208-3 0  9998
2 49207  87.9253 194.1412 0001286 103.4915 256.6360 13.18688077 84964
ONEWEB-0342             
1 49208U 21083Y   23163.90732607  .00000212  00000+0  48905-3 0  9999
2 49208  87.9230 133.5379 0002109  76.8266 283.3103 13.20771447 91547
ONEWEB-0343             
1 49209U 21083Z   23163.85275080 -.00000049  00000+0 -15663-3 0  9996
2 49209  87.9252 194.1637 0000984  87.4295 272.6950 13.18684572 85027
ONEWEB-0344             
1 49210U 21083AA  23164.46825208 -.00000030  00000+0 -11630-3 0  9999
2 49210  87.9049 178.9073 0002144  98.3858 261.7514 13.13467578 87839
ONEWEB-0345             
1 49211U 21083AB  23163.80064453  .00000327  00000+0  86018-3 0  9993
2 49211  87.9050 179.0257 0001822 111.0764 249.0560 13.13468115 86454
ONEWEB-0346             
1 49212U 21083AC  23163.78530205  .00000021  00000+0  19907-4 0  9999
2 49212  87.9252 194.1687 0002342 104.3755 255.7637 13.18688220 84955
ONEWEB-0348             
1 49213U 21083AD  23163.89974763  .00000022  00000+0  22889-4 0  9997
2 49213  87.9230 133.4990 0002190  95.0584 265.0799 13.20771799 91578
ONEWEB-0350             
1 49214U 21083AE  23163.81016942  .00000287  00000+0  75070-3 0  9998
2 49214  87.9051 179.0514 0001912 102.1673 257.9670 13.13468722 86481
ONEWEB-0351             
1 49215U 21083AF  23163.89217019  .00000055  00000+0  10372-3 0  9992
2 49215  87.9205 133.5076 0001989  73.7587 286.3765 13.20770937 91537
ONEWEB-0352             
1 49216U 21083AG  23164.01966504  .00000230  00000+0  59385-3 0  9990
2 49216  87.9049 178.9939 0001907  80.8305 279.3040 13.13471863 87904
ONEWEB-0354             
1 49217U 21083AH  23164.14468427  .00000094  00000+0  19867-3 0  9995
2 49217  87.9233 133.4297 0001819  88.5816 271.5526 13.20769324 92917
ONEWEB-0355             
1 49218U 21083AJ  23164.43227912  .00000131  00000+0  32302-3 0  9991
2 49218  87.9048 178.9130 0001821  88.0190 272.1148 13.13472519 87836
ONEWEB-0357             
1 49219U 21083AK  23163.61184023 -.00000134  00000+0 -36172-3 0  9990
2 49219  87.9208 133.5632 0002059  89.7315 270.4054 13.20772972 91533
ONEWEB-0332             
1 49279U 21090A   23164.39462023  .00000227  00000+0  57776-3 0  9993
2 49279  87.9025 148.6050 0002112  72.4784 287.6577 13.14504914 83090
ONEWEB-0347             
1 49280U 21090B   23163.90479306  .00000047  00000+0  84120-4 0  9997
2 49280  87.9181 133.4455 0002616  75.8833 284.2591 13.20773390 85800
ONEWEB-0349             
1 49281U 21090C   23163.63458953  .00000121  00000+0  26682-3 0  9994
2 49281  87.9228 133.5416 0002036  94.7734 265.3632 13.20772316 84551
ONEWEB-0353             
1 49282U 21090D   23163.92946795  .00000078  00000+0  17619-3 0  9994
2 49282  87.9027 148.6732 0002254  77.1312 283.0069 13.14505357 83031
ONEWEB-0356             
1 49283U 21090E   23164.16237162  .00000147  00000+0  33065-3 0  9993
2 49283  87.9230 133.4417 0002928  97.6810 262.4656 13.20769847 85913
ONEWEB-0358             
1 49284U 21090F   23164.19265637  .00000148  00000+0  33217-3 0  9995
2 49284  87.9230 133.4116 0002237  98.9409 261.1977 13.20773000 86640
ONEWEB-0359             
1 49285U 21090G   23163.88711657  .00000021  00000+0  18942-4 0  9998
2 49285  87.9227 133.5088 0001615  91.6438 268.4880 13.20771993 85299
ONEWEB-0360             
1 49286U 21090H   23164.18002195 -.00000267  00000+0 -68757-3 0  9995
2 49286  87.9233 133.4433 0002089  87.6599 272.4773 13.20771737 85932
ONEWEB-0361             
1 49287U 21090J   23163.62952332  .00000035  00000+0  54980-4 0  9996
2 49287  87.9229 133.5489 0002236  89.1281 271.0108 13.20773232 85028
ONEWEB-0362             
1 49288U 21090K   23163.69650785  .00000125  00000+0  28046-3 0  9994
2 49288  87.9257 163.9053 0002265  82.7432 277.3958 13.19725374 81764
ONEWEB-0363             
1 49289U 21090L   23164.17751349  .00000069  00000+0  13667-3 0  9997
2 49289  87.9229 133.4393 0002259  93.3894 266.7498 13.20773397 85930
ONEWEB-0364             
1 49290U 21090M   23164.21537745  .00000067  00000+0  13249-3 0  9990
2 49290  87.9239 133.4349 0002307  80.8116 279.3278 13.20768633 87065
ONEWEB-0365             
1 49291U 21090N   23164.23562753  .00000059  00000+0  11529-3 0  9990
2 49291  87.9255 163.7866 0001944  85.6477 274.4877 13.19728028 82634
ONEWEB-0366             
1 49292U 21090P   23164.22968289 -.00000046  00000+0 -15883-3 0  9999
2 49292  87.9030 148.6179 0002280  82.9390 277.1999 13.14499382 84352
ONEWEB-0367             
1 49293U 21090Q   23163.64469697  .00000094  00000+0  20032-3 0  9997
2 49293  87.9227 133.5414 0002349  79.8207 280.3191 13.20772488 84554
ONEWEB-0368             
1 49294U 21090R   23164.37447160  .00000019  00000+0  15438-4 0  9992
2 49294  87.9238 133.4034 0002835  82.5143 277.6312 13.20768562 87100
ONEWEB-0369             
1 49295U 21090S   23164.00397413  .00000051  00000+0  94550-4 0  9996
2 49295  87.9252 163.8295 0002257  85.0183 275.1208 13.19725187 82592
ONEWEB-0370             
1 49296U 21090T   23163.87953282 -.00000071  00000+0 -20682-3 0  9991
2 49296  87.9229 133.4970 0002250  87.6455 272.4935 13.20771925 84629
ONEWEB-0371             
1 49297U 21090U   23163.93658783  .00000039  00000+0  64552-4 0  9994
2 49297  87.9254 163.8312 0002114  84.9372 275.2002 13.19726755 81332
ONEWEB-0372             
1 49298U 21090V   23163.64216692  .00000107  00000+0  23246-3 0  9992
2 49298  87.9225 133.5417 0002045  73.0264 287.1093 13.20773607 84563
ONEWEB-0373             
1 49299U 21090W   23164.20023529  .00000069  00000+0  13781-3 0  9991
2 49299  87.9177 133.3929 0002553  86.9939 273.1486 13.20768634 87122
ONEWEB-0374             
1 49300U 21090X   23164.21700707 -.00000480  00000+0 -13292-2 0  9990
2 49300  87.9026 148.6143 0002157  86.0095 274.1281 13.14502357 84345
ONEWEB-0375             
1 49301U 21090Y   23163.88459509  .00000054  00000+0  10042-3 0  9990
2 49301  87.9227 133.5008 0002533 101.5766 258.5652 13.20772976 85283
ONEWEB-0376             
1 49302U 21090Z   23164.38937021  .00000065  00000+0  12992-3 0  9995
2 49302  87.9255 163.7564 0002095  78.9107 281.2261 13.19727410 82676
ONEWEB-0377             
1 49303U 21090AA  23163.88206485  .00000054  00000+0  10116-3 0  9997
2 49303  87.9228 133.4968 0001895  84.7343 275.4006 13.20772933 85276
ONEWEB-0378             
1 49304U 21090AB  23164.37575071  .00000000  00000+0 -32278-4 0  9999
2 49304  87.9227 133.3929 0002479  86.6641 273.4776 13.20772100 85923
ONEWEB-0379             
1 49305U 21090AC  23163.90618430 -.00000099  00000+0 -30103-3 0  9998
2 49305  87.9027 148.6763 0002212  84.0217 276.1165 13.14500030 83017
ONEWEB-0380             
1 49306U 21090AD  23163.70280010  .00000119  00000+0  26473-3 0  9992
2 49306  87.9254 163.8895 0001845  91.2175 268.9169 13.19727976 81273
ONEWEB-0381             
1 49307U 21090AE  23163.63963956  .00000079  00000+0  16113-3 0  9997
2 49307  87.9181 133.4932 0002103  89.9840 270.1534 13.20773297 84553
ONEWEB-0382             
1 49308U 21090AF  23164.15731090  .00000127  00000+0  28080-3 0  9998
2 49308  87.9229 133.4387 0002428  92.2148 267.9263 13.20769473 85925
ONEWEB-0383             
1 49309U 21090AG  23163.67149646 -.00000144  00000+0 -42286-3 0  9990
2 49309  87.9027 148.7058 0002353  85.2009 274.9389 13.14500966 83019
ONEWEB-0384             
1 49310U 21090AH  23164.15480113  .00000071  00000+0  14237-3 0  9995
2 49310  87.9228 133.4364 0002748  95.6196 264.5250 13.20770260 85933
ONEWEB-0385             
1 49311U 21090AJ  23164.14974477  .00000073  00000+0  14782-3 0  9993
2 49311  87.9228 133.4394 0002366  93.4605 266.6799 13.20772688 85919
ONEWEB-0386             
1 49312U 21090AK  23163.63711988  .00000078  00000+0  15930-3 0  9994
2 49312  87.9232 133.5510 0002491  91.0383 269.1035 13.20771314 84546
